UVSQ-SAT NG             
1 63251U 25052AT  26068.67646346  .00002790  00000+0  26116-3 0  9991
2 63251  97.6968 322.0499 0002599 168.7801 191.3478 14.94868635 53767
CAPELLA-16 (ACADIA-6)   
1 65318U 25188D   26068.63571192  .00009467  00000+0  90451-3 0  9990
2 65318  97.7411 145.2573 0004619 195.5059 164.6020 14.93468543 29057
