[{"OBJECT_NAME":"UVSQ-SAT NG","OBJECT_ID":"2025-052AT","EPOCH":"2026-03-09T16:14:06.443808","MEAN_MOTION":14.94868635,"ECCENTRICITY":0.00025988,"INCLINATION":97.6968,"RA_OF_ASC_NODE":322.0499,"ARG_OF_PERICENTER":168.7801,"MEAN_ANOMALY":191.3478,"EPHEMERIS_TYPE":0,"CLASSIFICATION_TYPE":"U","NORAD_CAT_ID":63251,"ELEMENT_SET_NO":999,"REV_AT_EPOCH":5376,"BSTAR":0.00026115974,"MEAN_MOTION_DOT":2.79e-5,"MEAN_MOTION_DDOT":0},{"OBJECT_NAME":"CAPELLA-16 (ACADIA-6)","OBJECT_ID":"2025-188D","EPOCH":"2026-03-09T15:15:25.509888","MEAN_MOTION":14.93468543,"ECCENTRICITY":0.0004619,"INCLINATION":97.7411,"RA_OF_ASC_NODE":145.2573,"ARG_OF_PERICENTER":195.5059,"MEAN_ANOMALY":164.602,"EPHEMERIS_TYPE":0,"CLASSIFICATION_TYPE":"U","NORAD_CAT_ID":65318,"ELEMENT_SET_NO":999,"REV_AT_EPOCH":2905,"BSTAR":0.00090451,"MEAN_MOTION_DOT":9.467e-5,"MEAN_MOTION_DDOT":0}]
